{
"type": "FeatureCollection",
"crs": { "type": "name", "properties": { "name": "urn:ogc:def:crs:OGC:1.3:CRS84" } },
                                                                                
"features": [
{ "type": "Feature", "properties": { "項目": 1, "地區": "海巡署艦隊分署", "名稱": "第1海巡隊", "郵遞區號": 20248, "地址": "基隆市中正路249號", "X座標": 121.761581, "Y座標": 25.144291 }, "geometry": { "type": "Point", "coordinates": [ 121.761581, 25.144291 ] } },
{ "type": "Feature", "properties": { "項目": 2, "地區": "海巡署艦隊分署", "名稱": "第2海巡隊", "郵遞區號": 25155, "地址": "新北市淡水區觀海路251號", "X座標": 121.408762, "Y座標": 25.184337 }, "geometry": { "type": "Point", "coordinates": [ 121.408762, 25.184337 ] } },
{ "type": "Feature", "properties": { "項目": 3, "地區": "海巡署艦隊分署", "名稱": "第3海巡隊", "郵遞區號": 43650, "地址": "台中市清水區北堤路1-2號", "X座標": 120.539022, "Y座標": 24.289952 }, "geometry": { "type": "Point", "coordinates": [ 120.539022, 24.289952 ] } },
{ "type": "Feature", "properties": { "項目": 4, "地區": "海巡署艦隊分署", "名稱": "第4海巡隊", "郵遞區號": 70259, "地址": "台南市南區鯤鯓路601號", "X座標": 120.164504, "Y座標": 22.966378 }, "geometry": { "type": "Point", "coordinates": [ 120.164504, 22.966378 ] } },
{ "type": "Feature", "properties": { "項目": 5, "地區": "海巡署艦隊分署", "名稱": "第5海巡隊", "郵遞區號": 80544, "地址": "高雄市旗津區北汕巷50-72號", "X座標": 120.289233, "Y座標": 22.587914 }, "geometry": { "type": "Point", "coordinates": [ 120.289233, 22.587914 ] } },
{ "type": "Feature", "properties": { "項目": 6, "地區": "海巡署艦隊分署", "名稱": "第6海巡隊", "郵遞區號": 97060, "地址": "花蓮市順興路43號", "X座標": 121.628193, "Y座標": 23.991983 }, "geometry": { "type": "Point", "coordinates": [ 121.628193, 23.991983 ] } },
{ "type": "Feature", "properties": { "項目": 7, "地區": "海巡署艦隊分署", "名稱": "第7海巡隊", "郵遞區號": 27046, "地址": "宜蘭縣蘇澳鎮港區路7之1號", "X座標": 121.585110, "Y座標": 24.595913 }, "geometry": { "type": "Point", "coordinates": [ 121.58511, 24.595913 ] } },
{ "type": "Feature", "properties": { "項目": 8, "地區": "海巡署艦隊分署", "名稱": "第8海巡隊", "郵遞區號": 88056, "地址": "澎湖縣馬公市大案山里19鄰大案山200號", "X座標": 119.573302, "Y座標": 23.563267 }, "geometry": { "type": "Point", "coordinates": [ 119.573302, 23.563267 ] } },
{ "type": "Feature", "properties": { "項目": 9, "地區": "海巡署艦隊分署", "名稱": "第9海巡隊", "郵遞區號": 89141, "地址": "金門縣金湖鎮料羅港1號", "X座標": 118.436297, "Y座標": 24.411066 }, "geometry": { "type": "Point", "coordinates": [ 118.436297, 24.411066 ] } },
{ "type": "Feature", "properties": { "項目": 10, "地區": "海巡署艦隊分署", "名稱": "第10海巡隊", "郵遞區號": 20941, "地址": "連江縣南竿鄉福沃村8鄰138號", "X座標": 119.939562, "Y座標": 23.154435 }, "geometry": { "type": "Point", "coordinates": [ 119.939562, 23.154435 ] } },
{ "type": "Feature", "properties": { "項目": 11, "地區": "海巡署艦隊分署", "名稱": "分署本部", "郵遞區號": 25155, "地址": "新北市淡水區中正路1段63巷20號", "X座標": 121.559450, "Y座標": 24.994978 }, "geometry": { "type": "Point", "coordinates": [ 121.55945, 24.994978 ] } },
{ "type": "Feature", "properties": { "項目": 12, "地區": "海巡署艦隊分署", "名稱": "第12海巡隊", "郵遞區號": 30057, "地址": "新竹市新港南路99號", "X座標": 120.920021, "Y座標": 24.845985 }, "geometry": { "type": "Point", "coordinates": [ 120.920021, 24.845985 ] } },
{ "type": "Feature", "properties": { "項目": 13, "地區": "海巡署艦隊分署", "名稱": "第13海巡隊", "郵遞區號": 62541, "地址": "嘉義縣布袋鎮順安路79巷2號", "X座標": 120.156177, "Y座標": 23.379983 }, "geometry": { "type": "Point", "coordinates": [ 120.156177, 23.379983 ] } },
{ "type": "Feature", "properties": { "項目": 14, "地區": "海巡署艦隊分署", "名稱": "第14海巡隊", "郵遞區號": 94645, "地址": "屏東縣恆春鎮後壁湖路96巷67號", "X座標": 120.742674, "Y座標": 21.945012 }, "geometry": { "type": "Point", "coordinates": [ 120.742674, 21.945012 ] } },
{ "type": "Feature", "properties": { "項目": 15, "地區": "海巡署艦隊分署", "名稱": "第15海巡隊", "郵遞區號": 95057, "地址": "台東市富岡街296之1號", "X座標": 121.191549, "Y座標": 22.791847 }, "geometry": { "type": "Point", "coordinates": [ 121.191549, 22.791847 ] } },
{ "type": "Feature", "properties": { "項目": 16, "地區": "海巡署艦隊分署", "名稱": "第16海巡隊", "郵遞區號": 22844, "地址": "新北市貢寮區新港街128號", "X座標": 121.926801, "Y座標": 25.056084 }, "geometry": { "type": "Point", "coordinates": [ 121.926801, 25.056084 ] } },
{ "type": "Feature", "properties": { "項目": 17, "地區": "海巡署艦隊分署", "名稱": "直屬船隊", "郵遞區號": 85243, "地址": "高雄市茄萣區崎漏里正遠路1號", "X座標": 120.202496, "Y座標": 22.868787 }, "geometry": { "type": "Point", "coordinates": [ 120.202496, 22.868787 ] } },
{ "type": "Feature", "properties": { "項目": 18, "地區": "海巡署艦隊分署", "名稱": "北部地區機動海巡隊", "郵遞區號": 24941, "地址": "新北市八里區廈竹圍7-9號", "X座標": 121.386050, "Y座標": 25.152216 }, "geometry": { "type": "Point", "coordinates": [ 121.38605, 25.152216 ] } },
{ "type": "Feature", "properties": { "項目": 19, "地區": "海巡署艦隊分署", "名稱": "中部地區機動海巡隊", "郵遞區號": 43650, "地址": "台中市清水區北堤路1-3號", "X座標": 120.523923, "Y座標": 24.292395 }, "geometry": { "type": "Point", "coordinates": [ 120.523923, 24.292395 ] } },
{ "type": "Feature", "properties": { "項目": 20, "地區": "海巡署艦隊分署", "名稱": "南部地區機動海巡隊", "郵遞區號": 80444, "地址": "高雄市鼓山區蓬萊路32號", "X座標": 120.279336, "Y座標": 22.620377 }, "geometry": { "type": "Point", "coordinates": [ 120.279336, 22.620377 ] } },
{ "type": "Feature", "properties": { "項目": 21, "地區": "海巡署艦隊分署", "名稱": "東部地區機動海巡隊", "郵遞區號": 97048, "地址": "花蓮縣花蓮市北濱街31號", "X座標": 121.614489, "Y座標": 23.974580 }, "geometry": { "type": "Point", "coordinates": [ 121.614489, 23.97458 ] } },
{ "type": "Feature", "properties": { "項目": 22, "地區": "海巡署北部分署", "名稱": "清水安檢所", "郵遞區號": 26846, "地址": "宜蘭縣五結鄉季新村季水路93號", "X座標": 121.835650, "Y座標": 24.692700 }, "geometry": { "type": "Point", "coordinates": [ 121.83565, 24.6927 ] } },
{ "type": "Feature", "properties": { "項目": 23, "地區": "海巡署北部分署", "名稱": "蘇澳安檢所", "郵遞區號": 27042, "地址": "宜蘭縣蘇澳鎮港區路50號", "X座標": 121.868780, "Y座標": 24.586550 }, "geometry": { "type": "Point", "coordinates": [ 121.86878, 24.58655 ] } },
{ "type": "Feature", "properties": { "項目": 24, "地區": "海巡署北部分署", "名稱": "南興安檢所", "郵遞區號": 27043, "地址": "宜蘭縣蘇澳鎮跨港路156號", "X座標": 121.866440, "Y座標": 24.585800 }, "geometry": { "type": "Point", "coordinates": [ 121.86644, 24.5858 ] } },
{ "type": "Feature", "properties": { "項目": 25, "地區": "海巡署北部分署", "名稱": "粉鳥林安檢所", "郵遞區號": 27091, "地址": "宜蘭縣蘇澳鎮東澳里粉鳥林1號", "X座標": 121.842120, "Y座標": 24.497760 }, "geometry": { "type": "Point", "coordinates": [ 121.84212, 24.49776 ] } },
{ "type": "Feature", "properties": { "項目": 26, "地區": "海巡署北部分署", "名稱": "南澳漁港安檢所", "郵遞區號": 27095, "地址": "宜蘭縣蘇澳鎮朝陽里朝陽路1-1號", "X座標": 121.819550, "Y座標": 24.461580 }, "geometry": { "type": "Point", "coordinates": [ 121.81955, 24.46158 ] } },
{ "type": "Feature", "properties": { "項目": 27, "地區": "海巡署北部分署", "名稱": "大里安檢所", "郵遞區號": 26145, "地址": "宜蘭縣頭城鎮大里里大里路115之4號", "X座標": 121.921560, "Y座標": 24.963360 }, "geometry": { "type": "Point", "coordinates": [ 121.92156, 24.96336 ] } },
{ "type": "Feature", "properties": { "項目": 28, "地區": "海巡署北部分署", "名稱": "大溪漁港安檢所", "郵遞區號": 26145, "地址": "宜蘭縣頭城鎮大溪里濱海路5段492號", "X座標": 121.903290, "Y座標": 24.942470 }, "geometry": { "type": "Point", "coordinates": [ 121.90329, 24.94247 ] } },
{ "type": "Feature", "properties": { "項目": 29, "地區": "海巡署北部分署", "名稱": "梗枋安檢所", "郵遞區號": 26144, "地址": "宜蘭縣頭城鎮更新里濱海路三段292號", "X座標": 121.870300, "Y座標": 24.907480 }, "geometry": { "type": "Point", "coordinates": [ 121.8703, 24.90748 ] } },
{ "type": "Feature", "properties": { "項目": 30, "地區": "海巡署北部分署", "名稱": "大福村安檢所", "郵遞區號": 26341, "地址": "宜蘭縣壯圍鄉大福村壯濱路6段156巷7號", "X座標": 121.817990, "Y座標": 24.795780 }, "geometry": { "type": "Point", "coordinates": [ 121.81799, 24.79578 ] } },
{ "type": "Feature", "properties": { "項目": 31, "地區": "海巡署北部分署", "名稱": "龜山島安檢所", "郵遞區號": 26145, "地址": "宜蘭縣頭城鎮龜山鄉龜山村龜山路1號", "X座標": 121.943800, "Y座標": 24.843680 }, "geometry": { "type": "Point", "coordinates": [ 121.9438, 24.84368 ] } },
{ "type": "Feature", "properties": { "項目": 32, "地區": "海巡署北部分署", "名稱": "烏石漁港安檢所", "郵遞區號": 26143, "地址": "宜蘭縣頭城鎮港口里港墘路300號", "X座標": 121.834440, "Y座標": 24.862910 }, "geometry": { "type": "Point", "coordinates": [ 121.83444, 24.86291 ] } },
{ "type": "Feature", "properties": { "項目": 33, "地區": "海巡署北部分署", "名稱": "第一(岳明)機動巡邏站", "郵遞區號": 27047, "地址": "宜蘭縣蘇澳鎮港邊里4鄰嶺腳路71-2號", "X座標": 121.853420, "Y座標": 24.613430 }, "geometry": { "type": "Point", "coordinates": [ 121.85342, 24.61343 ] } },
{ "type": "Feature", "properties": { "項目": 34, "地區": "海巡署北部分署", "名稱": "第二(合興)機動巡邏站", "郵遞區號": 26145, "地址": "宜蘭縣頭城鎮合興里濱海路4段50號", "X座標": 121.883190, "Y座標": 24.917950 }, "geometry": { "type": "Point", "coordinates": [ 121.88319, 24.91795 ] } },
{ "type": "Feature", "properties": { "項目": 35, "地區": "海巡署北部分署", "名稱": "南雅漁港安檢所", "郵遞區號": 22451, "地址": "新北市瑞芳區南雅里南雅路89號之8", "X座標": 121.886840, "Y座標": 25.121540 }, "geometry": { "type": "Point", "coordinates": [ 121.88684, 25.12154 ] } },
{ "type": "Feature", "properties": { "項目": 36, "地區": "海巡署北部分署", "名稱": "鼻頭安檢所", "郵遞區號": 22451, "地址": "新北市瑞芳區鼻頭里鼻頭路97號之1", "X座標": 121.916080, "Y座標": 25.124300 }, "geometry": { "type": "Point", "coordinates": [ 121.91608, 25.1243 ] } },
{ "type": "Feature", "properties": { "項目": 37, "地區": "海巡署北部分署", "名稱": "龍洞安檢所", "郵遞區號": 22842, "地址": "新北市貢寮區龍洞街35-6號", "X座標": 121.913380, "Y座標": 25.116500 }, "geometry": { "type": "Point", "coordinates": [ 121.91338, 25.1165 ] } },
{ "type": "Feature", "properties": { "項目": 38, "地區": "海巡署北部分署", "名稱": "澳底漁港安檢所", "郵遞區號": 22844, "地址": "新北市貢寮區真理里新港街122號", "X座標": 121.927460, "Y座標": 25.057990 }, "geometry": { "type": "Point", "coordinates": [ 121.92746, 25.05799 ] } },
{ "type": "Feature", "properties": { "項目": 39, "地區": "海巡署北部分署", "名稱": "馬崗安檢所", "郵遞區號": 22841, "地址": "新北市貢寮區福連里馬崗街22號", "X座標": 122.002640, "Y座標": 25.014140 }, "geometry": { "type": "Point", "coordinates": [ 122.00264, 25.01414 ] } },
{ "type": "Feature", "properties": { "項目": 40, "地區": "海巡署北部分署", "名稱": "深澳安檢所", "郵遞區號": 22447, "地址": "新北市瑞芳區深澳路189-9號", "X座標": 121.820790, "Y座標": 25.134790 }, "geometry": { "type": "Point", "coordinates": [ 121.82079, 25.13479 ] } },
{ "type": "Feature", "properties": { "項目": 41, "地區": "海巡署北部分署", "名稱": "長潭里安檢所", "郵遞區號": 20248, "地址": "基隆市中正區北寧路369巷66號", "X座標": 121.801380, "Y座標": 25.141410 }, "geometry": { "type": "Point", "coordinates": [ 121.80138, 25.14141 ] } },
{ "type": "Feature", "properties": { "項目": 42, "地區": "海巡署北部分署", "名稱": "八斗子安檢所", "郵遞區號": 20248, "地址": "基隆市中正區漁港一街9號", "X座標": 121.791510, "Y座標": 25.145680 }, "geometry": { "type": "Point", "coordinates": [ 121.79151, 25.14568 ] } },
{ "type": "Feature", "properties": { "項目": 43, "地區": "海巡署北部分署", "名稱": "碧砂漁港安檢所", "郵遞區號": 20248, "地址": "基隆市中正區北寧路213-20號", "X座標": 121.787350, "Y座標": 25.146040 }, "geometry": { "type": "Point", "coordinates": [ 121.78735, 25.14604 ] } },
{ "type": "Feature", "properties": { "項目": 44, "地區": "海巡署北部分署", "名稱": "正濱漁港安檢所", "郵遞區號": 20246, "地址": "基隆市中正區和一路232號", "X座標": 121.762700, "Y座標": 25.155260 }, "geometry": { "type": "Point", "coordinates": [ 121.7627, 25.15526 ] } },
{ "type": "Feature", "properties": { "項目": 45, "地區": "海巡署北部分署", "名稱": "基隆商港安檢所", "郵遞區號": 20248, "地址": "基隆市中正區中正路249號", "X座標": 121.761340, "Y座標": 25.144670 }, "geometry": { "type": "Point", "coordinates": [ 121.76134, 25.14467 ] } },
{ "type": "Feature", "properties": { "項目": 46, "地區": "海巡署北部分署", "名稱": "外木山安檢所", "郵遞區號": 20345, "地址": "基隆市中山區協和街211-3號", "X座標": 121.733990, "Y座標": 25.160850 }, "geometry": { "type": "Point", "coordinates": [ 121.73399, 25.16085 ] } },
{ "type": "Feature", "properties": { "項目": 47, "地區": "海巡署北部分署", "名稱": "大武崙漁港安檢所", "郵遞區號": 20446, "地址": "基隆市安樂區湖海路2段186號", "X座標": 121.706950, "Y座標": 25.166870 }, "geometry": { "type": "Point", "coordinates": [ 121.70695, 25.16687 ] } },
{ "type": "Feature", "properties": { "項目": 48, "地區": "海巡署北部分署", "名稱": "基隆嶼安檢所", "郵遞區號": 20248, "地址": "基隆市中正區基隆嶼8號", "X座標": 121.784380, "Y座標": 25.191220 }, "geometry": { "type": "Point", "coordinates": [ 121.78438, 25.19122 ] } },
{ "type": "Feature", "properties": { "項目": 49, "地區": "海巡署北部分署", "名稱": "彭佳嶼機動巡邏站", "郵遞區號": 20248, "地址": "基隆市中正區彭佳嶼10號", "X座標": 121.770400, "Y座標": 25.162490 }, "geometry": { "type": "Point", "coordinates": [ 121.7704, 25.16249 ] } },
{ "type": "Feature", "properties": { "項目": 50, "地區": "海巡署北部分署", "名稱": "萬里漁港安檢所", "郵遞區號": 20745, "地址": "新北市萬里區獅頭路15-3號", "X座標": 121.697820, "Y座標": 25.181530 }, "geometry": { "type": "Point", "coordinates": [ 121.69782, 25.18153 ] } },
{ "type": "Feature", "properties": { "項目": 51, "地區": "海巡署北部分署", "名稱": "龜吼漁港安檢所", "郵遞區號": 20744, "地址": "新北市萬里區翡翠里漁澳路85-3號", "X座標": 121.688950, "Y座標": 25.197230 }, "geometry": { "type": "Point", "coordinates": [ 121.68895, 25.19723 ] } },
{ "type": "Feature", "properties": { "項目": 52, "地區": "海巡署北部分署", "名稱": "野柳安檢所", "郵遞區號": 20744, "地址": "新北市萬里區野柳里港東路72-2號", "X座標": 121.688120, "Y座標": 25.205350 }, "geometry": { "type": "Point", "coordinates": [ 121.68812, 25.20535 ] } },
{ "type": "Feature", "properties": { "項目": 53, "地區": "海巡署北部分署", "名稱": "磺港安檢所", "郵遞區號": 20844, "地址": "新北市金山區磺港路24-5號", "X座標": 121.649810, "Y座標": 25.230380 }, "geometry": { "type": "Point", "coordinates": [ 121.64981, 25.23038 ] } },
{ "type": "Feature", "properties": { "項目": 54, "地區": "海巡署北部分署", "名稱": "石門安檢所", "郵遞區號": 25343, "地址": "新北市石門區中央路37-1號", "X座標": 121.568570, "Y座標": 25.299550 }, "geometry": { "type": "Point", "coordinates": [ 121.56857, 25.29955 ] } },
{ "type": "Feature", "properties": { "項目": 55, "地區": "海巡署北部分署", "名稱": "富基漁港安檢所", "郵遞區號": 25342, "地址": "新北市石門區楓林路15-1號", "X座標": 121.534660, "Y座標": 25.294540 }, "geometry": { "type": "Point", "coordinates": [ 121.53466, 25.29454 ] } },
{ "type": "Feature", "properties": { "項目": 56, "地區": "海巡署北部分署", "名稱": "第一(金山)機動巡邏站", "郵遞區號": 20741, "地址": "新北市萬里區大鵬里加投路301之6號", "X座標": 121.646550, "Y座標": 25.220810 }, "geometry": { "type": "Point", "coordinates": [ 121.64655, 25.22081 ] } },
{ "type": "Feature", "properties": { "項目": 57, "地區": "海巡署北部分署", "名稱": "第二(福隆)機動巡邏站", "郵遞區號": 22841, "地址": "新北市貢寮區福隆里東興街2號", "X座標": 121.952380, "Y座標": 25.021520 }, "geometry": { "type": "Point", "coordinates": [ 121.95238, 25.02152 ] } },
{ "type": "Feature", "properties": { "項目": 58, "地區": "海巡署北部分署", "名稱": "麟山鼻安檢所", "郵遞區號": 25341, "地址": "新北市石門區德茂里1鄰下員坑15-15號", "X座標": 121.510650, "Y座標": 25.284420 }, "geometry": { "type": "Point", "coordinates": [ 121.51065, 25.28442 ] } },
{ "type": "Feature", "properties": { "項目": 59, "地區": "海巡署北部分署", "名稱": "後厝安檢所", "郵遞區號": 25242, "地址": "新北市三芝區錫板里海尾14-34號", "X座標": 121.475310, "Y座標": 25.257480 }, "geometry": { "type": "Point", "coordinates": [ 121.47531, 25.25748 ] } },
{ "type": "Feature", "properties": { "項目": 60, "地區": "海巡署北部分署", "名稱": "淡水第二漁港安檢所", "郵遞區號": 25155, "地址": "新北市淡水區觀海路251號", "X座標": 121.408790, "Y座標": 25.184710 }, "geometry": { "type": "Point", "coordinates": [ 121.40879, 25.18471 ] } },
{ "type": "Feature", "properties": { "項目": 61, "地區": "海巡署北部分署", "名稱": "台北商港安檢所", "郵遞區號": 24941, "地址": "新北市八里區廈竹圍7之9號", "X座標": 121.390820, "Y座標": 25.151510 }, "geometry": { "type": "Point", "coordinates": [ 121.39082, 25.15151 ] } },
{ "type": "Feature", "properties": { "項目": 62, "地區": "海巡署北部分署", "名稱": "下罟子安檢所", "郵遞區號": 24941, "地址": "新北市八里區下罟子街2鄰16-9號", "X座標": 121.380840, "Y座標": 25.142250 }, "geometry": { "type": "Point", "coordinates": [ 121.38084, 25.14225 ] } },
{ "type": "Feature", "properties": { "項目": 63, "地區": "海巡署北部分署", "名稱": "下福安檢所", "郵遞區號": 24442, "地址": "新北市林口區下福里10鄰135號", "X座標": 121.295820, "Y座標": 25.121700 }, "geometry": { "type": "Point", "coordinates": [ 121.29582, 25.1217 ] } },
{ "type": "Feature", "properties": { "項目": 64, "地區": "海巡署北部分署", "名稱": "竹圍安檢所", "郵遞區號": 33748, "地址": "桃園市大園區沙崙里漁港路537巷10號", "X座標": 121.242900, "Y座標": 25.118150 }, "geometry": { "type": "Point", "coordinates": [ 121.2429, 25.11815 ] } },
{ "type": "Feature", "properties": { "項目": 65, "地區": "海巡署北部分署", "名稱": "永安漁港安檢所", "郵遞區號": 32744, "地址": "桃園市新屋區新港路36號", "X座標": 121.016280, "Y座標": 24.990020 }, "geometry": { "type": "Point", "coordinates": [ 121.01628, 24.99002 ] } },
{ "type": "Feature", "properties": { "項目": 66, "地區": "海巡署北部分署", "名稱": "蚵二安檢所", "郵遞區號": 32745, "地址": "桃園市新屋區蚵殼港56號", "X座標": 120.986920, "Y座標": 24.939850 }, "geometry": { "type": "Point", "coordinates": [ 120.98692, 24.93985 ] } },
{ "type": "Feature", "properties": { "項目": 67, "地區": "海巡署北部分署", "名稱": "坡頭漁港安檢所", "郵遞區號": 30446, "地址": "新竹縣新豐鄉坡頭村1鄰2之3-14號", "X座標": 120.974290, "Y座標": 24.926440 }, "geometry": { "type": "Point", "coordinates": [ 120.97429, 24.92644 ] } },
{ "type": "Feature", "properties": { "項目": 68, "地區": "海巡署北部分署", "名稱": "新港里安檢所", "郵遞區號": 30263, "地址": "新竹縣竹北市新港里10鄰10號", "X座標": 120.938310, "Y座標": 24.852950 }, "geometry": { "type": "Point", "coordinates": [ 120.93831, 24.85295 ] } },
{ "type": "Feature", "properties": { "項目": 69, "地區": "海巡署北部分署", "名稱": "新竹安檢所", "郵遞區號": 30058, "地址": "新竹市新港南路101號", "X座標": 120.919660, "Y座標": 24.849040 }, "geometry": { "type": "Point", "coordinates": [ 120.91966, 24.84904 ] } },
{ "type": "Feature", "properties": { "項目": 70, "地區": "海巡署北部分署", "名稱": "海山安檢所", "郵遞區號": 30094, "地址": "新竹市香山區海山港路26號", "X座標": 120.905860, "Y座標": 24.764490 }, "geometry": { "type": "Point", "coordinates": [ 120.90586, 24.76449 ] } },
{ "type": "Feature", "properties": { "項目": 71, "地區": "海巡署北部分署", "名稱": "第二(尚義)機動巡邏站", "郵遞區號": 30287, "地址": "新竹縣竹北市尚義里15鄰尚義街125號", "X座標": 120.955220, "Y座標": 24.897090 }, "geometry": { "type": "Point", "coordinates": [ 120.95522, 24.89709 ] } },
{ "type": "Feature", "properties": { "項目": 72, "地區": "海巡署北部分署", "名稱": "第一(竹圍)機動巡邏站", "郵遞區號": 33748, "地址": "桃園市大園區西濱路一段78巷58號", "X座標": 121.240040, "Y座標": 25.112940 }, "geometry": { "type": "Point", "coordinates": [ 121.24004, 25.11294 ] } },
{ "type": "Feature", "properties": { "項目": 73, "地區": "海巡署中部分署", "名稱": "龍鳳安檢所", "郵遞區號": 350, "地址": "苗栗縣竹南鎮龍鳳里龍江街359巷5號", "X座標": 120.859120, "Y座標": 27.700800 }, "geometry": { "type": "Point", "coordinates": [ 120.85912, 27.7008 ] } },
{ "type": "Feature", "properties": { "項目": 74, "地區": "海巡署中部分署", "名稱": "塭仔頭安檢所", "郵遞區號": 350, "地址": "苗栗縣竹南鎮港墘里塭仔頭28之6號", "X座標": 120.843530, "Y座標": 24.667580 }, "geometry": { "type": "Point", "coordinates": [ 120.84353, 24.66758 ] } },
{ "type": "Feature", "properties": { "項目": 75, "地區": "海巡署中部分署", "名稱": "外埔安檢所", "郵遞區號": 356, "地址": "苗栗縣後龍鎮海埔里8鄰125-15號", "X座標": 120.772240, "Y座標": 24.649300 }, "geometry": { "type": "Point", "coordinates": [ 120.77224, 24.6493 ] } },
{ "type": "Feature", "properties": { "項目": 76, "地區": "海巡署中部分署", "名稱": "公司寮安檢所", "郵遞區號": 356, "地址": "苗栗縣後龍鎮龍津里公司寮1-3號", "X座標": 120.757070, "Y座標": 24.613360 }, "geometry": { "type": "Point", "coordinates": [ 120.75707, 24.61336 ] } },
{ "type": "Feature", "properties": { "項目": 77, "地區": "海巡署中部分署", "名稱": "白沙屯安檢所", "郵遞區號": 357, "地址": "苗栗縣通霄鎮白東里5-1號", "X座標": 120.707260, "Y座標": 24.572220 }, "geometry": { "type": "Point", "coordinates": [ 120.70726, 24.57222 ] } },
{ "type": "Feature", "properties": { "項目": 78, "地區": "海巡署中部分署", "名稱": "通霄安檢所", "郵遞區號": 357, "地址": "苗栗縣通霄鎮通霄里漁港路69號", "X座標": 120.674090, "Y座標": 24.499700 }, "geometry": { "type": "Point", "coordinates": [ 120.67409, 24.4997 ] } },
{ "type": "Feature", "properties": { "項目": 79, "地區": "海巡署中部分署", "名稱": "苑裡安檢所", "郵遞區號": 358, "地址": "苗栗縣苑裡鎮海岸里36-6號", "X座標": 120.633880, "Y座標": 24.447660 }, "geometry": { "type": "Point", "coordinates": [ 120.63388, 24.44766 ] } },
{ "type": "Feature", "properties": { "項目": 80, "地區": "海巡署中部分署", "名稱": "松柏港安檢所", "郵遞區號": 437, "地址": "台中市大甲區順帆路233號", "X座標": 120.617320, "Y座標": 24.428920 }, "geometry": { "type": "Point", "coordinates": [ 120.61732, 24.42892 ] } },
{ "type": "Feature", "properties": { "項目": 81, "地區": "海巡署中部分署", "名稱": "溫寮安檢所", "郵遞區號": 439, "地址": "台中市大安區中山北路一巷53號", "X座標": 120.583710, "Y座標": 24.372460 }, "geometry": { "type": "Point", "coordinates": [ 120.58371, 24.37246 ] } },
{ "type": "Feature", "properties": { "項目": 82, "地區": "海巡署中部分署", "名稱": "梧棲安檢所", "郵遞區號": 436, "地址": "台中市清水區北堤路21號", "X座標": 120.517680, "Y座標": 24.293500 }, "geometry": { "type": "Point", "coordinates": [ 120.51768, 24.2935 ] } },
{ "type": "Feature", "properties": { "項目": 83, "地區": "海巡署中部分署", "名稱": "台中商港安檢所", "郵遞區號": 436, "地址": "臺中市清水區北四路168號", "X座標": 120.538020, "Y座標": 24.288600 }, "geometry": { "type": "Point", "coordinates": [ 120.53802, 24.2886 ] } },
{ "type": "Feature", "properties": { "項目": 84, "地區": "海巡署中部分署", "名稱": "麗水安檢所", "郵遞區號": 434, "地址": "台中市龍井區麗水里10鄰三港路水里港巷61-5號", "X座標": 120.495400, "Y座標": 24.200130 }, "geometry": { "type": "Point", "coordinates": [ 120.4954, 24.20013 ] } },
{ "type": "Feature", "properties": { "項目": 85, "地區": "海巡署中部分署", "名稱": "防潮門安檢所", "郵遞區號": 509, "地址": "彰化縣伸港鄉全興村西全路167巷111之1", "X座標": 120.487230, "Y座標": 24.183870 }, "geometry": { "type": "Point", "coordinates": [ 120.48723, 24.18387 ] } },
{ "type": "Feature", "properties": { "項目": 86, "地區": "海巡署中部分署", "名稱": "塭仔安檢所", "郵遞區號": 507, "地址": "彰化縣線西鄉塭仔村漁港路1236號", "X座標": 120.438350, "Y座標": 24.125990 }, "geometry": { "type": "Point", "coordinates": [ 120.43835, 24.12599 ] } },
{ "type": "Feature", "properties": { "項目": 87, "地區": "海巡署中部分署", "名稱": "崙尾灣安檢所", "郵遞區號": 505, "地址": "彰化縣鹿港鎮顏厝小段530-17地號", "X座標": 120.418090, "Y座標": 24.080620 }, "geometry": { "type": "Point", "coordinates": [ 120.41809, 24.08062 ] } },
{ "type": "Feature", "properties": { "項目": 88, "地區": "海巡署中部分署", "名稱": "王功安檢所", "郵遞區號": 528, "地址": "彰化縣芳苑鄉王功村漁港路968號", "X座標": 120.325530, "Y座標": 23.968400 }, "geometry": { "type": "Point", "coordinates": [ 120.32553, 23.9684 ] } },
{ "type": "Feature", "properties": { "項目": 89, "地區": "海巡署中部分署", "名稱": "芳苑安檢所", "郵遞區號": 528, "地址": "彰化縣芳苑鄉芳中村光明路80號", "X座標": 120.315070, "Y座標": 23.928750 }, "geometry": { "type": "Point", "coordinates": [ 120.31507, 23.92875 ] } },
{ "type": "Feature", "properties": { "項目": 90, "地區": "海巡署中部分署", "名稱": "三豐安檢所", "郵遞區號": 527, "地址": "彰化縣大城鄉三豐村和平路30之1號", "X座標": 120.289680, "Y座標": 23.882570 }, "geometry": { "type": "Point", "coordinates": [ 120.28968, 23.88257 ] } },
{ "type": "Feature", "properties": { "項目": 91, "地區": "海巡署中部分署", "名稱": "第一機動巡邏站(鹿港)", "郵遞區號": 50549, "地址": "彰化縣鹿港鎮新宮里媽祖路39號", "X座標": 120.425570, "Y座標": 24.057960 }, "geometry": { "type": "Point", "coordinates": [ 120.42557, 24.05796 ] } },
{ "type": "Feature", "properties": { "項目": 92, "地區": "海巡署中部分署", "名稱": "第二機動巡邏站(中港)", "郵遞區號": 43964, "地址": "臺中市大安區五甲北路10巷100號", "X座標": 120.593730, "Y座標": 24.402500 }, "geometry": { "type": "Point", "coordinates": [ 120.59373, 24.4025 ] } },
{ "type": "Feature", "properties": { "項目": 93, "地區": "海巡署中部分署", "名稱": "第三機動巡邏站(龍港)", "郵遞區號": 35668, "地址": "苗栗縣後龍鎮龍津里87之5號", "X座標": 120.744060, "Y座標": 24.662160 }, "geometry": { "type": "Point", "coordinates": [ 120.74406, 24.66216 ] } },
{ "type": "Feature", "properties": { "項目": 94, "地區": "海巡署中部分署", "名稱": "許厝寮安檢所", "郵遞區號": 638, "地址": "雲林縣麥寮鄉台塑工業園區4號", "X座標": 120.226360, "Y座標": 23.818460 }, "geometry": { "type": "Point", "coordinates": [ 120.22636, 23.81846 ] } },
{ "type": "Feature", "properties": { "項目": 95, "地區": "海巡署中部分署", "名稱": "麥寮工業港安檢所", "郵遞區號": 638, "地址": "雲林縣麥寮鄉三盛村台塑工業園區1號", "X座標": 120.167090, "Y座標": 23.766580 }, "geometry": { "type": "Point", "coordinates": [ 120.16709, 23.76658 ] } },
{ "type": "Feature", "properties": { "項目": 96, "地區": "海巡署中部分署", "名稱": "蚊港安檢所", "郵遞區號": 636, "地址": "雲林縣台西鄉新興海埔地1路12號", "X座標": 120.180210, "Y座標": 23.755190 }, "geometry": { "type": "Point", "coordinates": [ 120.18021, 23.75519 ] } },
{ "type": "Feature", "properties": { "項目": 97, "地區": "海巡署中部分署", "名稱": "五條港安檢所", "郵遞區號": 636, "地址": "雲林縣台西鄉五港村中央路1000號", "X座標": 120.171830, "Y座標": 23.722140 }, "geometry": { "type": "Point", "coordinates": [ 120.17183, 23.72214 ] } },
{ "type": "Feature", "properties": { "項目": 98, "地區": "海巡署中部分署", "名稱": "台西安檢所", "郵遞區號": 636, "地址": "雲林縣台西鄉台興段251號", "X座標": 120.198300, "Y座標": 23.704380 }, "geometry": { "type": "Point", "coordinates": [ 120.1983, 23.70438 ] } },
{ "type": "Feature", "properties": { "項目": 99, "地區": "海巡署中部分署", "名稱": "三條崙安檢所", "郵遞區號": 654, "地址": "雲林縣四湖鄉海清路299-1號", "X座標": 120.150960, "Y座標": 23.659040 }, "geometry": { "type": "Point", "coordinates": [ 120.15096, 23.65904 ] } },
{ "type": "Feature", "properties": { "項目": 100, "地區": "海巡署中部分署", "名稱": "箔子寮安檢所", "郵遞區號": 653, "地址": "雲林縣口湖鄉下崙村漁港路370號", "X座標": 120.139950, "Y座標": 23.619470 }, "geometry": { "type": "Point", "coordinates": [ 120.13995, 23.61947 ] } },
{ "type": "Feature", "properties": { "項目": 101, "地區": "海巡署中部分署", "名稱": "金湖安檢所", "郵遞區號": 653, "地址": "雲林縣口湖鄉港溪村養漁路100號", "X座標": 120.147480, "Y座標": 23.575120 }, "geometry": { "type": "Point", "coordinates": [ 120.14748, 23.57512 ] } },
{ "type": "Feature", "properties": { "項目": 102, "地區": "海巡署中部分署", "名稱": "台子村安檢所", "郵遞區號": 653, "地址": "雲林縣口湖鄉台興路260號", "X座標": 120.139880, "Y座標": 23.560800 }, "geometry": { "type": "Point", "coordinates": [ 120.13988, 23.5608 ] } },
{ "type": "Feature", "properties": { "項目": 103, "地區": "海巡署中部分署", "名稱": "下湖口安檢所", "郵遞區號": 653, "地址": "雲林縣口湖鄉湖口村湖口250號", "X座標": 120.150210, "Y座標": 23.534210 }, "geometry": { "type": "Point", "coordinates": [ 120.15021, 23.53421 ] } },
{ "type": "Feature", "properties": { "項目": 104, "地區": "海巡署中部分署", "名稱": "副瀨安檢所", "郵遞區號": 614, "地址": "嘉義縣東石鄉副瀨村副瀨87-26號", "X座標": 120.169180, "Y座標": 23.492230 }, "geometry": { "type": "Point", "coordinates": [ 120.16918, 23.49223 ] } },
{ "type": "Feature", "properties": { "項目": 105, "地區": "海巡署中部分署", "名稱": "型厝安檢所", "郵遞區號": 614, "地址": "嘉義縣東石鄉型厝村型厝安檢所", "X座標": 120.147720, "Y座標": 23.475470 }, "geometry": { "type": "Point", "coordinates": [ 120.14772, 23.47547 ] } },
{ "type": "Feature", "properties": { "項目": 106, "地區": "海巡署中部分署", "名稱": "塭港安檢所", "郵遞區號": 614, "地址": "嘉義縣東石鄉塭港村19 鄰52之50 號", "X座標": 120.146650, "Y座標": 23.466000 }, "geometry": { "type": "Point", "coordinates": [ 120.14665, 23.466 ] } },
{ "type": "Feature", "properties": { "項目": 107, "地區": "海巡署中部分署", "名稱": "東石安檢所", "郵遞區號": 614, "地址": "嘉義縣東石鄉東石村觀海一路161號", "X座標": 120.139630, "Y座標": 23.452480 }, "geometry": { "type": "Point", "coordinates": [ 120.13963, 23.45248 ] } },
{ "type": "Feature", "properties": { "項目": 108, "地區": "海巡署中部分署", "名稱": "網寮安檢所", "郵遞區號": 614, "地址": "嘉義縣東石鄉網寮村59-10號", "X座標": 120.148450, "Y座標": 23.438460 }, "geometry": { "type": "Point", "coordinates": [ 120.14845, 23.43846 ] } },
{ "type": "Feature", "properties": { "項目": 109, "地區": "海巡署中部分署", "名稱": "白水湖安檢所", "郵遞區號": 614, "地址": "嘉義縣東石鄉掌潭村白水湖63-1號", "X座標": 120.156980, "Y座標": 23.439820 }, "geometry": { "type": "Point", "coordinates": [ 120.15698, 23.43982 ] } },
{ "type": "Feature", "properties": { "項目": 110, "地區": "海巡署中部分署", "名稱": "布袋安檢所", "郵遞區號": 625, "地址": "嘉義縣布袋鎮興中里後寮路202號", "X座標": 120.154720, "Y座標": 23.388300 }, "geometry": { "type": "Point", "coordinates": [ 120.15472, 23.3883 ] } },
{ "type": "Feature", "properties": { "項目": 111, "地區": "海巡署中部分署", "名稱": "布袋商港安檢所", "郵遞區號": 625, "地址": "嘉義縣布袋鎮岑海里海興街2號", "X座標": 120.147500, "Y座標": 23.377620 }, "geometry": { "type": "Point", "coordinates": [ 120.1475, 23.37762 ] } },
{ "type": "Feature", "properties": { "項目": 112, "地區": "海巡署中部分署", "名稱": "好美里安檢所", "郵遞區號": 625, "地址": "嘉義縣布袋鎮好美里虎尾寮169-1號", "X座標": 120.126240, "Y座標": 23.340980 }, "geometry": { "type": "Point", "coordinates": [ 120.12624, 23.34098 ] } },
{ "type": "Feature", "properties": { "項目": 113, "地區": "海巡署中部分署", "名稱": "第一機動巡邏站(麥寮)", "郵遞區號": 63801, "地址": "雲林縣麥寮鄉台塑工業園區4號", "X座標": 120.191700, "Y座標": 23.788120 }, "geometry": { "type": "Point", "coordinates": [ 120.1917, 23.78812 ] } },
{ "type": "Feature", "properties": { "項目": 114, "地區": "海巡署中部分署", "名稱": "第二機動巡邏站(東石)", "郵遞區號": 61441, "地址": "嘉義縣東石鄉彩霞大道400號", "X座標": 120.133610, "Y座標": 23.452090 }, "geometry": { "type": "Point", "coordinates": [ 120.13361, 23.45209 ] } },
{ "type": "Feature", "properties": { "項目": 115, "地區": "海巡署南部分署", "名稱": "柴山安檢所", "郵遞區號": 80441, "地址": "高雄市鼓山區柴山93-1號", "X座標": 120.252620, "Y座標": 22.645560 }, "geometry": { "type": "Point", "coordinates": [ 120.25262, 22.64556 ] } },
{ "type": "Feature", "properties": { "項目": 116, "地區": "海巡署南部分署", "名稱": "一港口安檢所", "郵遞區號": 80444, "地址": "高雄市鼓山區哨船街2-1號", "X座標": 120.266860, "Y座標": 22.617740 }, "geometry": { "type": "Point", "coordinates": [ 120.26686, 22.61774 ] } },
{ "type": "Feature", "properties": { "項目": 117, "地區": "海巡署南部分署", "名稱": "高雄商檢所、第二機動巡邏站(壽麓)", "郵遞區號": 80444, "地址": "高雄市鼓山一路107號", "X座標": 120.278560, "Y座標": 22.627490 }, "geometry": { "type": "Point", "coordinates": [ 120.27856, 22.62749 ] } },
{ "type": "Feature", "properties": { "項目": 118, "地區": "海巡署南部分署", "名稱": "旗后安檢所", "郵遞區號": 80541, "地址": "高雄市旗津區海岸路28號", "X座標": 120.267970, "Y座標": 22.615700 }, "geometry": { "type": "Point", "coordinates": [ 120.26797, 22.6157 ] } },
{ "type": "Feature", "properties": { "項目": 119, "地區": "海巡署南部分署", "名稱": "中興商檢所", "郵遞區號": 80544, "地址": "高雄市旗津區北汕巷50-72號5樓", "X座標": 120.285950, "Y座標": 22.592920 }, "geometry": { "type": "Point", "coordinates": [ 120.28595, 22.59292 ] } },
{ "type": "Feature", "properties": { "項目": 120, "地區": "海巡署南部分署", "名稱": "中和安檢所", "郵遞區號": 80546, "地址": "高雄市旗津區旗津一路3號", "X座標": 120.316490, "Y座標": 22.555000 }, "geometry": { "type": "Point", "coordinates": [ 120.31649, 22.555 ] } },
{ "type": "Feature", "properties": { "項目": 121, "地區": "海巡署南部分署", "名稱": "第一機動巡邏站(鳳鼻頭)", "郵遞區號": 81261, "地址": "高雄市小港區南星路107號", "X座標": 120.358000, "Y座標": 22.513440 }, "geometry": { "type": "Point", "coordinates": [ 120.358, 22.51344 ] } },
{ "type": "Feature", "properties": { "項目": 122, "地區": "海巡署南部分署", "名稱": "鳳鼻頭漁港安檢所", "郵遞區號": 81264, "地址": "高雄市小港區鳳鳴里16鄰南星路107號", "X座標": 120.359130, "Y座標": 22.509050 }, "geometry": { "type": "Point", "coordinates": [ 120.35913, 22.50905 ] } },
{ "type": "Feature", "properties": { "項目": 123, "地區": "海巡署南部分署", "名稱": "蚵寮漁港安檢所", "郵遞區號": 72742, "地址": "台南市北門區雙春里8鄰雙春73-20號", "X座標": 120.102460, "Y座標": 23.319470 }, "geometry": { "type": "Point", "coordinates": [ 120.10246, 23.31947 ] } },
{ "type": "Feature", "properties": { "項目": 124, "地區": "海巡署南部分署", "名稱": "蘆竹溝漁港安檢所", "郵遞區號": 72744, "地址": "台南市北門區三光里蘆竹溝372-15號", "X座標": 120.095440, "Y座標": 23.233310 }, "geometry": { "type": "Point", "coordinates": [ 120.09544, 23.23331 ] } },
{ "type": "Feature", "properties": { "項目": 125, "地區": "海巡署南部分署", "名稱": "第二機動巡邏站(文山)", "郵遞區號": 72744, "地址": "台南市北門區文山里溪底寮55-5號", "X座標": 120.129530, "Y座標": 23.241230 }, "geometry": { "type": "Point", "coordinates": [ 120.12953, 23.24123 ] } },
{ "type": "Feature", "properties": { "項目": 126, "地區": "海巡署南部分署", "名稱": "將軍漁港安檢所", "郵遞區號": 72549, "地址": "台南市將軍區平沙里13鄰平沙150號", "X座標": 120.083940, "Y座標": 23.213560 }, "geometry": { "type": "Point", "coordinates": [ 120.08394, 23.21356 ] } },
{ "type": "Feature", "properties": { "項目": 127, "地區": "海巡署南部分署", "名稱": "青山漁港安檢所", "郵遞區號": 72550, "地址": "台南市將軍區鯤鯓里7鄰鯤鯓286-20號", "X座標": 120.070680, "Y座標": 23.185310 }, "geometry": { "type": "Point", "coordinates": [ 120.07068, 23.18531 ] } },
{ "type": "Feature", "properties": { "項目": 128, "地區": "海巡署南部分署", "名稱": "下山漁港安檢所", "郵遞區號": 72447, "地址": "台南市七股區龍山里210號", "X座標": 120.093000, "Y座標": 23.138490 }, "geometry": { "type": "Point", "coordinates": [ 120.093, 23.13849 ] } },
{ "type": "Feature", "properties": { "項目": 129, "地區": "海巡署南部分署", "名稱": "北堤安檢所", "郵遞區號": 72453, "地址": "台南市七股區海埔11-30號", "X座標": 120.052370, "Y座標": 23.113780 }, "geometry": { "type": "Point", "coordinates": [ 120.05237, 23.11378 ] } },
{ "type": "Feature", "properties": { "項目": 130, "地區": "海巡署南部分署", "名稱": "曾文溪安檢所", "郵遞區號": 70956, "地址": "台南市安南區城西街3段1070-10號", "X座標": 120.077820, "Y座標": 23.056750 }, "geometry": { "type": "Point", "coordinates": [ 120.07782, 23.05675 ] } },
{ "type": "Feature", "properties": { "項目": 131, "地區": "海巡署南部分署", "名稱": "四草漁港安檢所", "郵遞區號": 70965, "地址": "台南市安南區北汕尾一路439巷72弄656號", "X座標": 120.111670, "Y座標": 23.023470 }, "geometry": { "type": "Point", "coordinates": [ 120.11167, 23.02347 ] } },
{ "type": "Feature", "properties": { "項目": 132, "地區": "海巡署南部分署", "名稱": "鹿耳門安檢所", "郵遞區號": 70955, "地址": "台南巿安南區四草大道81巷401弄18號", "X座標": 120.127430, "Y座標": 23.006720 }, "geometry": { "type": "Point", "coordinates": [ 120.12743, 23.00672 ] } },
{ "type": "Feature", "properties": { "項目": 133, "地區": "海巡署南部分署", "名稱": "安平漁港安檢所", "郵遞區號": 70841, "地址": "台南市安平區安港路1號", "X座標": 120.149740, "Y座標": 22.989240 }, "geometry": { "type": "Point", "coordinates": [ 120.14974, 22.98924 ] } },
{ "type": "Feature", "properties": { "項目": 134, "地區": "海巡署南部分署", "名稱": "安平商港安檢所", "郵遞區號": 70841, "地址": "台南市安平區漁光路300號", "X座標": 120.151310, "Y座標": 22.988140 }, "geometry": { "type": "Point", "coordinates": [ 120.15131, 22.98814 ] } },
{ "type": "Feature", "properties": { "項目": 135, "地區": "海巡署南部分署", "名稱": "第一機動巡邏站(茄萣)", "郵遞區號": 85241, "地址": "高雄市茄萣區萬福里福德路252號", "X座標": 120.180720, "Y座標": 22.913710 }, "geometry": { "type": "Point", "coordinates": [ 120.18072, 22.91371 ] } },
{ "type": "Feature", "properties": { "項目": 136, "地區": "海巡署南部分署", "名稱": "白砂崙安檢所", "郵遞區號": 85241, "地址": "高雄市茄萣區福德里白沙路475巷120號", "X座標": 120.181180, "Y座標": 22.915410 }, "geometry": { "type": "Point", "coordinates": [ 120.18118, 22.91541 ] } },
{ "type": "Feature", "properties": { "項目": 137, "地區": "海巡署南部分署", "名稱": "興達港安檢所", "郵遞區號": 85243, "地址": "高雄市茄萣區大發路1號", "X座標": 120.194870, "Y座標": 22.864490 }, "geometry": { "type": "Point", "coordinates": [ 120.19487, 22.86449 ] } },
{ "type": "Feature", "properties": { "項目": 138, "地區": "海巡署南部分署", "名稱": "崎漏安檢所", "郵遞區號": 85243, "地址": "高雄市茄萣區興達路1-10號", "X座標": 120.196500, "Y座標": 22.861890 }, "geometry": { "type": "Point", "coordinates": [ 120.1965, 22.86189 ] } },
{ "type": "Feature", "properties": { "項目": 139, "地區": "海巡署南部分署", "名稱": "永新漁港安檢所", "郵遞區號": 82842, "地址": "高雄市永安區新興路27號", "X座標": 120.207980, "Y座標": 22.821390 }, "geometry": { "type": "Point", "coordinates": [ 120.20798, 22.82139 ] } },
{ "type": "Feature", "properties": { "項目": 140, "地區": "海巡署南部分署", "名稱": "彌陀安檢所", "郵遞區號": 82744, "地址": "高雄市彌陀區南寮里漁港一街62號", "X座標": 120.233780, "Y座標": 22.762080 }, "geometry": { "type": "Point", "coordinates": [ 120.23378, 22.76208 ] } },
{ "type": "Feature", "properties": { "項目": 141, "地區": "海巡署南部分署", "名稱": "蚵子寮安檢所", "郵遞區號": 82646, "地址": "高雄市梓官區廣澤路100號", "X座標": 120.253150, "Y座標": 22.726050 }, "geometry": { "type": "Point", "coordinates": [ 120.25315, 22.72605 ] } },
{ "type": "Feature", "properties": { "項目": 142, "地區": "海巡署南部分署", "名稱": "港嘴安檢所", "郵遞區號": 83243, "地址": "高雄市林園區港嘴二路201號", "X座標": 120.382940, "Y座標": 22.492660 }, "geometry": { "type": "Point", "coordinates": [ 120.38294, 22.49266 ] } },
{ "type": "Feature", "properties": { "項目": 143, "地區": "海巡署南部分署", "名稱": "汕尾漁港安檢所", "郵遞區號": 83244, "地址": "高雄市林園區東汕里東汕路115號", "X座標": 120.413830, "Y座標": 22.478290 }, "geometry": { "type": "Point", "coordinates": [ 120.41383, 22.47829 ] } },
{ "type": "Feature", "properties": { "項目": 144, "地區": "海巡署南部分署", "名稱": "中芸安檢所", "郵遞區號": 83244, "地址": "高雄市林園區北汕里中正路42之4號", "X座標": 120.399280, "Y座標": 22.481730 }, "geometry": { "type": "Point", "coordinates": [ 120.39928, 22.48173 ] } },
{ "type": "Feature", "properties": { "項目": 145, "地區": "海巡署南部分署", "名稱": "東港安檢所", "郵遞區號": 92844, "地址": "屏東縣東港鎮朝安里新生一路71號", "X座標": 120.438550, "Y座標": 22.466080 }, "geometry": { "type": "Point", "coordinates": [ 120.43855, 22.46608 ] } },
{ "type": "Feature", "properties": { "項目": 146, "地區": "海巡署南部分署", "名稱": "鹽埔安檢所", "郵遞區號": 93248, "地址": "屏東縣新園鄉共和村新興路1號", "X座標": 120.434600, "Y座標": 22.471400 }, "geometry": { "type": "Point", "coordinates": [ 120.4346, 22.4714 ] } },
{ "type": "Feature", "properties": { "項目": 147, "地區": "海巡署南部分署", "名稱": "大鵬灣安檢所", "郵遞區號": 92846, "地址": "屏東縣東港鎮南平里南平路175-6號", "X座標": 120.478160, "Y座標": 22.433410 }, "geometry": { "type": "Point", "coordinates": [ 120.47816, 22.43341 ] } },
{ "type": "Feature", "properties": { "項目": 148, "地區": "海巡署南部分署", "名稱": "崎峰安檢所", "郵遞區號": 92746, "地址": "屏東縣林邊鄉崎峰村裕後路83之1號", "X座標": 120.490380, "Y座標": 22.426840 }, "geometry": { "type": "Point", "coordinates": [ 120.49038, 22.42684 ] } },
{ "type": "Feature", "properties": { "項目": 149, "地區": "海巡署南部分署", "名稱": "水利村漁港安檢所", "郵遞區號": 92745, "地址": "屏東縣林邊鄉水利村豐作路1之12號", "X座標": 120.513340, "Y座標": 22.418810 }, "geometry": { "type": "Point", "coordinates": [ 120.51334, 22.41881 ] } },
{ "type": "Feature", "properties": { "項目": 150, "地區": "海巡署南部分署", "名稱": "小琉球漁港安檢所", "郵遞區號": 92941, "地址": "屏東縣琉球鄉中福村1鄰三民路278號", "X座標": 120.383510, "Y座標": 22.353550 }, "geometry": { "type": "Point", "coordinates": [ 120.38351, 22.35355 ] } },
{ "type": "Feature", "properties": { "項目": 151, "地區": "海巡署南部分署", "名稱": "杉福漁港安檢所", "郵遞區號": 92942, "地址": "屏東縣琉球鄉杉福村10鄰復興路29之3號", "X座標": 120.363240, "Y座標": 22.341490 }, "geometry": { "type": "Point", "coordinates": [ 120.36324, 22.34149 ] } },
{ "type": "Feature", "properties": { "項目": 152, "地區": "海巡署南部分署", "名稱": "琉球新漁港安檢所", "郵遞區號": 92942, "地址": "屏東縣琉球鄉大福村仁愛路39號", "X座標": 120.374340, "Y座標": 22.335850 }, "geometry": { "type": "Point", "coordinates": [ 120.37434, 22.33585 ] } },
{ "type": "Feature", "properties": { "項目": 153, "地區": "海巡署南部分署", "名稱": "塭豐安檢所", "郵遞區號": 93143, "地址": "屏東縣佳冬鄉焰塭村北興路6-3號", "X座標": 120.519750, "Y座標": 22.415920 }, "geometry": { "type": "Point", "coordinates": [ 120.51975, 22.41592 ] } },
{ "type": "Feature", "properties": { "項目": 154, "地區": "海巡署南部分署", "名稱": "頂寮安檢所", "郵遞區號": 93413, "地址": "屏東縣佳冬鄉塭豐村南寮路501號", "X座標": 120.526030, "Y座標": 22.408780 }, "geometry": { "type": "Point", "coordinates": [ 120.52603, 22.40878 ] } },
{ "type": "Feature", "properties": { "項目": 155, "地區": "海巡署南部分署", "名稱": "下寮安檢所", "郵遞區號": 94042, "地址": "屏東縣枋寮鄉大庄村德聖路37號", "X座標": 120.555890, "Y座標": 22.392640 }, "geometry": { "type": "Point", "coordinates": [ 120.55589, 22.39264 ] } },
{ "type": "Feature", "properties": { "項目": 156, "地區": "海巡署南部分署", "名稱": "枋寮漁港安檢所", "郵遞區號": 94044, "地址": "屏東縣枋山鄉保生村保生路437-2號", "X座標": 120.592890, "Y座標": 22.364030 }, "geometry": { "type": "Point", "coordinates": [ 120.59289, 22.36403 ] } },
{ "type": "Feature", "properties": { "項目": 157, "地區": "海巡署南部分署", "名稱": "第二機動巡邏站(加祿堂)", "郵遞區號": 94145, "地址": "屏東縣枋山鄉加祿村加祿路190-300號", "X座標": 120.621700, "Y座標": 22.336570 }, "geometry": { "type": "Point", "coordinates": [ 120.6217, 22.33657 ] } },
{ "type": "Feature", "properties": { "項目": 158, "地區": "海巡署南部分署", "名稱": "加祿堂安檢所", "郵遞區號": 94145, "地址": "屏東縣枋山鄉加祿村48號", "X座標": 120.617050, "Y座標": 22.336220 }, "geometry": { "type": "Point", "coordinates": [ 120.61705, 22.33622 ] } },
{ "type": "Feature", "properties": { "項目": 159, "地區": "海巡署南部分署", "名稱": "枋山安檢所", "郵遞區號": 94150, "地址": "屏東縣枋山鄉南和路17-1號", "X座標": 120.642270, "Y座標": 22.302460 }, "geometry": { "type": "Point", "coordinates": [ 120.64227, 22.30246 ] } },
{ "type": "Feature", "properties": { "項目": 160, "地區": "海巡署南部分署", "名稱": "楓港安檢所", "郵遞區號": 94151, "地址": "屏東縣枋山鄉善餘村下坪路37號", "X座標": 120.690440, "Y座標": 22.187910 }, "geometry": { "type": "Point", "coordinates": [ 120.69044, 22.18791 ] } },
{ "type": "Feature", "properties": { "項目": 161, "地區": "海巡署南部分署", "名稱": "第二機動巡邏站(社皆坑營區)", "郵遞區號": 94443, "地址": "屏東縣車城鄉海口村尖山路37之5號", "X座標": 120.705380, "Y座標": 22.132700 }, "geometry": { "type": "Point", "coordinates": [ 120.70538, 22.1327 ] } },
{ "type": "Feature", "properties": { "項目": 162, "地區": "海巡署南部分署", "名稱": "海口漁港安檢所", "郵遞區號": 94443, "地址": "屏東縣車城鄉海口村海口路1號", "X座標": 120.715790, "Y座標": 22.089800 }, "geometry": { "type": "Point", "coordinates": [ 120.71579, 22.0898 ] } },
{ "type": "Feature", "properties": { "項目": 163, "地區": "海巡署南部分署", "名稱": "後灣漁港安檢所", "郵遞區號": 94450, "地址": "屏東縣車城鄉後灣村1鄰後灣路26號", "X座標": 120.695890, "Y座標": 22.058350 }, "geometry": { "type": "Point", "coordinates": [ 120.69589, 22.05835 ] } },
{ "type": "Feature", "properties": { "項目": 164, "地區": "海巡署南部分署", "名稱": "第一機動巡邏站(恆春)", "郵遞區號": 94641, "地址": "屏東縣恆春鎮環城南路200號", "X座標": 120.748420, "Y座標": 22.000430 }, "geometry": { "type": "Point", "coordinates": [ 120.74842, 22.00043 ] } },
{ "type": "Feature", "properties": { "項目": 165, "地區": "海巡署南部分署", "名稱": "山海安檢所", "郵遞區號": 94646, "地址": "屏東縣恆春鎮山海里5鄰山海路11之5號", "X座標": 120.714130, "Y座標": 22.100170 }, "geometry": { "type": "Point", "coordinates": [ 120.71413, 22.10017 ] } },
{ "type": "Feature", "properties": { "項目": 166, "地區": "海巡署南部分署", "名稱": "紅柴坑安檢所", "郵遞區號": 94645, "地址": "屏東縣恆春鎮山海里13鄰紅柴路50號", "X座標": 120.716200, "Y座標": 21.971750 }, "geometry": { "type": "Point", "coordinates": [ 120.7162, 21.97175 ] } },
{ "type": "Feature", "properties": { "項目": 167, "地區": "海巡署南部分署", "名稱": "後壁湖安檢所", "郵遞區號": 94645, "地址": "屏東縣恆春鎮大光里後壁湖路96巷65號", "X座標": 120.745710, "Y座標": 21.946120 }, "geometry": { "type": "Point", "coordinates": [ 120.74571, 21.94612 ] } },
{ "type": "Feature", "properties": { "項目": 168, "地區": "海巡署南部分署", "名稱": "潭仔灣安檢所", "郵遞區號": 94644, "地址": "屏東縣恆春鎮墾丁里1鄰墾丁路638號", "X座標": 120.778090, "Y座標": 21.951010 }, "geometry": { "type": "Point", "coordinates": [ 120.77809, 21.95101 ] } },
{ "type": "Feature", "properties": { "項目": 169, "地區": "海巡署南部分署", "名稱": "香蕉灣安檢所", "郵遞區號": 94644, "地址": "屏東縣恆春鎮鵝鑾里4鄰船帆路253號", "X座標": 120.831390, "Y座標": 21.925970 }, "geometry": { "type": "Point", "coordinates": [ 120.83139, 21.92597 ] } },
{ "type": "Feature", "properties": { "項目": 170, "地區": "海巡署南部分署", "名稱": "鵝鑾鼻安檢所", "郵遞區號": 94644, "地址": "屏東縣恆春顉鵝鑾里1鄰鵝鑾路441號", "X座標": 120.848460, "Y座標": 21.905820 }, "geometry": { "type": "Point", "coordinates": [ 120.84846, 21.90582 ] } },
{ "type": "Feature", "properties": { "項目": 171, "地區": "海巡署南部分署", "名稱": "興海漁港安檢所", "郵遞區號": 94742, "地址": "屏東縣滿州鄉港口村13鄰興海路106號", "X座標": 120.844200, "Y座標": 21.975560 }, "geometry": { "type": "Point", "coordinates": [ 120.8442, 21.97556 ] } },
{ "type": "Feature", "properties": { "項目": 172, "地區": "海巡署南部分署", "名稱": "旭海漁港安檢所", "郵遞區號": 94543, "地址": "屏東縣牡丹鄉旭海村1鄰旭海路1-2號", "X座標": 120.892360, "Y座標": 22.199230 }, "geometry": { "type": "Point", "coordinates": [ 120.89236, 22.19923 ] } },
{ "type": "Feature", "properties": { "項目": 173, "地區": "海巡署東部分署", "名稱": "伽藍安檢所", "郵遞區號": 95057, "地址": "台東市富岡街299號", "X座標": 121.192710, "Y座標": 22.792090 }, "geometry": { "type": "Point", "coordinates": [ 121.19271, 22.79209 ] } },
{ "type": "Feature", "properties": { "項目": 174, "地區": "海巡署東部分署", "名稱": "三和安檢所", "郵遞區號": 96343, "地址": "台東縣太麻里鄉漁場83-2號", "X座標": 121.037300, "Y座標": 22.671650 }, "geometry": { "type": "Point", "coordinates": [ 121.0373, 22.67165 ] } },
{ "type": "Feature", "properties": { "項目": 175, "地區": "海巡署東部分署", "名稱": "美和安檢所", "郵遞區號": 96343, "地址": "台東縣太麻里鄉美和28之1號", "X座標": 121.060250, "Y座標": 22.682590 }, "geometry": { "type": "Point", "coordinates": [ 121.06025, 22.68259 ] } },
{ "type": "Feature", "properties": { "項目": 176, "地區": "海巡署東部分署", "名稱": "香蘭安檢所", "郵遞區號": 96341, "地址": "台東縣太麻里鄉新香蘭村12之2號", "X座標": 120.990490, "Y座標": 22.575990 }, "geometry": { "type": "Point", "coordinates": [ 120.99049, 22.57599 ] } },
{ "type": "Feature", "properties": { "項目": 177, "地區": "海巡署東部分署", "名稱": "大武安檢所", "郵遞區號": 96541, "地址": "台東縣大武鄉客庄66號", "X座標": 120.895410, "Y座標": 22.339360 }, "geometry": { "type": "Point", "coordinates": [ 120.89541, 22.33936 ] } },
{ "type": "Feature", "properties": { "項目": 178, "地區": "海巡署東部分署", "名稱": "綠島安檢所", "郵遞區號": 95141, "地址": "台東縣綠島鄉南寮村漁港路1之1號", "X座標": 121.475860, "Y座標": 22.658580 }, "geometry": { "type": "Point", "coordinates": [ 121.47586, 22.65858 ] } },
{ "type": "Feature", "properties": { "項目": 179, "地區": "海巡署東部分署", "名稱": "開元安檢所", "郵遞區號": 95241, "地址": "台東縣蘭嶼鄉椰油村296號", "X座標": 121.509160, "Y座標": 22.058420 }, "geometry": { "type": "Point", "coordinates": [ 121.50916, 22.05842 ] } },
{ "type": "Feature", "properties": { "項目": 180, "地區": "海巡署東部分署", "名稱": "新社安檢所", "郵遞區號": 97791, "地址": "花蓮縣豐濱鄉豐濱村17鄰小港1-1號", "X座標": 121.528360, "Y座標": 23.605150 }, "geometry": { "type": "Point", "coordinates": [ 121.52836, 23.60515 ] } },
{ "type": "Feature", "properties": { "項目": 181, "地區": "海巡署東部分署", "名稱": "石梯安檢所", "郵遞區號": 97792, "地址": "花蓮縣豐濱鄉石梯灣78號", "X座標": 121.508550, "Y座標": 23.500810 }, "geometry": { "type": "Point", "coordinates": [ 121.50855, 23.50081 ] } },
{ "type": "Feature", "properties": { "項目": 182, "地區": "海巡署東部分署", "名稱": "長濱安檢所", "郵遞區號": 96241, "地址": "台東縣長濱鄉長濱村181-2號", "X座標": 121.457750, "Y座標": 23.314130 }, "geometry": { "type": "Point", "coordinates": [ 121.45775, 23.31413 ] } },
{ "type": "Feature", "properties": { "項目": 183, "地區": "海巡署東部分署", "名稱": "小港安檢所", "郵遞區號": 96141, "地址": "台東縣成功鎮成廣43-2號", "X座標": 121.402020, "Y座標": 23.160410 }, "geometry": { "type": "Point", "coordinates": [ 121.40202, 23.16041 ] } },
{ "type": "Feature", "properties": { "項目": 184, "地區": "海巡署東部分署", "名稱": "新港安檢所", "郵遞區號": 96143, "地址": "台東縣成功鎮光復路1-3號", "X座標": 121.380690, "Y座標": 23.098480 }, "geometry": { "type": "Point", "coordinates": [ 121.38069, 23.09848 ] } },
{ "type": "Feature", "properties": { "項目": 185, "地區": "海巡署東部分署", "名稱": "金樽安檢所", "郵遞區號": 95942, "地址": "台東縣東河鄉金樽1號", "X座標": 121.293650, "Y座標": 22.955740 }, "geometry": { "type": "Point", "coordinates": [ 121.29365, 22.95574 ] } },
{ "type": "Feature", "properties": { "項目": 186, "地區": "海巡署東部分署", "名稱": "第一機動巡邏站(烏石鼻)", "郵遞區號": 96242, "地址": "臺東縣長濱鄉膽曼村50號", "X座標": 121.415640, "Y座標": 23.225950 }, "geometry": { "type": "Point", "coordinates": [ 121.41564, 23.22595 ] } },
{ "type": "Feature", "properties": { "項目": 187, "地區": "海巡署東部分署", "名稱": "第二機動巡邏站(興昌)", "郵遞區號": 95942, "地址": "臺東縣東河鄉興昌村10鄰56-1號", "X座標": 121.246960, "Y座標": 22.895490 }, "geometry": { "type": "Point", "coordinates": [ 121.24696, 22.89549 ] } },
{ "type": "Feature", "properties": { "項目": 188, "地區": "海巡署東部分署", "名稱": "第三機動巡邏站(三和)", "郵遞區號": 95042, "地址": "臺東縣太麻里鄉三和村1鄰漁場路81號", "X座標": 121.037430, "Y座標": 22.671690 }, "geometry": { "type": "Point", "coordinates": [ 121.03743, 22.67169 ] } },
{ "type": "Feature", "properties": { "項目": 189, "地區": "海巡署東部分署", "名稱": "崇德安檢所", "郵遞區號": 97253, "地址": "花蓮縣秀林鄉崇德村21號", "X座標": 121.657320, "Y座標": 24.166380 }, "geometry": { "type": "Point", "coordinates": [ 121.65732, 24.16638 ] } },
{ "type": "Feature", "properties": { "項目": 190, "地區": "海巡署東部分署", "名稱": "和平安檢所", "郵遞區號": 97291, "地址": "花蓮縣秀林鄉和平280號", "X座標": 121.770040, "Y座標": 24.307840 }, "geometry": { "type": "Point", "coordinates": [ 121.77004, 24.30784 ] } },
{ "type": "Feature", "properties": { "項目": 191, "地區": "海巡署東部分署", "名稱": "七星潭安檢所", "郵遞區號": 97149, "地址": "花蓮縣新城鄉大漢村七星街22號", "X座標": 121.630990, "Y座標": 24.027800 }, "geometry": { "type": "Point", "coordinates": [ 121.63099, 24.0278 ] } },
{ "type": "Feature", "properties": { "項目": 192, "地區": "海巡署東部分署", "名稱": "花蓮漁港安檢所", "郵遞區號": 97064, "地址": "花蓮市民孝里港濱路41之1號", "X座標": 121.638240, "Y座標": 23.995860 }, "geometry": { "type": "Point", "coordinates": [ 121.63824, 23.99586 ] } },
{ "type": "Feature", "properties": { "項目": 193, "地區": "海巡署東部分署", "名稱": "花蓮商港安檢所", "郵遞區號": 97041, "地址": "花蓮市民孝里港口路27號", "X座標": 121.635030, "Y座標": 23.999920 }, "geometry": { "type": "Point", "coordinates": [ 121.63503, 23.99992 ] } },
{ "type": "Feature", "properties": { "項目": 194, "地區": "海巡署東部分署", "名稱": "鹽寮安檢所", "郵遞區號": 97449, "地址": "花蓮縣壽豐鄉鹽寮村橄樹腳46之1號", "X座標": 121.586060, "Y座標": 23.831000 }, "geometry": { "type": "Point", "coordinates": [ 121.58606, 23.831 ] } },
{ "type": "Feature", "properties": { "項目": 195, "地區": "海巡署東部分署", "名稱": "磯崎安檢所", "郵遞區號": 97791, "地址": "花蓮縣豐賓鄉磯崎村49之1號", "X座標": 121.547450, "Y座標": 23.708180 }, "geometry": { "type": "Point", "coordinates": [ 121.54745, 23.70818 ] } },
{ "type": "Feature", "properties": { "項目": 196, "地區": "海巡署東部分署", "名稱": "第一機動巡邏站(新社)", "郵遞區號": 97792, "地址": "花蓮縣豐濱鄉豐濱村17鄰小港1之1號", "X座標": 121.319570, "Y座標": 23.377570 }, "geometry": { "type": "Point", "coordinates": [ 121.31957, 23.37757 ] } },
{ "type": "Feature", "properties": { "項目": 197, "地區": "海巡署東部分署", "名稱": "第二機動巡邏站(沙東)", "郵遞區號": 97151, "地址": "花蓮縣新城鄉康樂村南三棧18鄰41之1號", "X座標": 121.618980, "Y座標": 24.092420 }, "geometry": { "type": "Point", "coordinates": [ 121.61898, 24.09242 ] } },
{ "type": "Feature", "properties": { "項目": 198, "地區": "海巡署金馬澎分署", "名稱": "福澳安檢所", "郵遞區號": 209, "地址": "連江縣南竿鄉福澳村453號", "X座標": 119.944160, "Y座標": 26.161170 }, "geometry": { "type": "Point", "coordinates": [ 119.94416, 26.16117 ] } },
{ "type": "Feature", "properties": { "項目": 199, "地區": "海巡署金馬澎分署", "名稱": "第一機動巡邏站(下腰山)", "郵遞區號": 209, "地址": "連江縣南竿鄉清水村9鄰137號", "X座標": 119.938040, "Y座標": 26.148390 }, "geometry": { "type": "Point", "coordinates": [ 119.93804, 26.14839 ] } },
{ "type": "Feature", "properties": { "項目": 200, "地區": "海巡署金馬澎分署", "名稱": "白沙安檢所", "郵遞區號": 210, "地址": "連江縣北竿鄉白沙村72號", "X座標": 119.968740, "Y座標": 26.206290 }, "geometry": { "type": "Point", "coordinates": [ 119.96874, 26.20629 ] } },
{ "type": "Feature", "properties": { "項目": 201, "地區": "海巡署金馬澎分署", "名稱": "第二機動巡邏站(橋仔安檢所)", "郵遞區號": 210, "地址": "連江縣北竿鄉橋仔村1號", "X座標": 119.998250, "Y座標": 26.224850 }, "geometry": { "type": "Point", "coordinates": [ 119.99825, 26.22485 ] } },
{ "type": "Feature", "properties": { "項目": 202, "地區": "海巡署金馬澎分署", "名稱": "青帆安檢所", "郵遞區號": 211, "地址": "連江縣莒光鄉青帆村31-1號", "X座標": 119.937140, "Y座標": 25.968890 }, "geometry": { "type": "Point", "coordinates": [ 119.93714, 25.96889 ] } },
{ "type": "Feature", "properties": { "項目": 203, "地區": "海巡署金馬澎分署", "名稱": "猛澳安檢所", "郵遞區號": 211, "地址": "連江縣莒光鄉大坪村91-1號", "X座標": 119.977550, "Y座標": 25.957400 }, "geometry": { "type": "Point", "coordinates": [ 119.97755, 25.9574 ] } },
{ "type": "Feature", "properties": { "項目": 204, "地區": "海巡署金馬澎分署", "名稱": "中柱安檢所", "郵遞區號": 212, "地址": "連江縣東引鄉樂華村160-3號", "X座標": 120.494670, "Y座標": 26.366590 }, "geometry": { "type": "Point", "coordinates": [ 120.49467, 26.36659 ] } },
{ "type": "Feature", "properties": { "項目": 205, "地區": "海巡署金馬澎分署", "名稱": "水頭商港安檢所", "郵遞區號": 893, "地址": "金門縣金城鎮西海路一段58號", "X座標": 118.291600, "Y座標": 24.437090 }, "geometry": { "type": "Point", "coordinates": [ 118.2916, 24.43709 ] } },
{ "type": "Feature", "properties": { "項目": 206, "地區": "海巡署金馬澎分署", "名稱": "復國墩安檢所", "郵遞區號": 891, "地址": "金門縣金湖鎮溪湖里復國墩", "X座標": 118.466830, "Y座標": 24.447950 }, "geometry": { "type": "Point", "coordinates": [ 118.46683, 24.44795 ] } },
{ "type": "Feature", "properties": { "項目": 207, "地區": "海巡署金馬澎分署", "名稱": "料羅商港安檢所", "郵遞區號": 891, "地址": "金門縣金湖鎮料羅港5號", "X座標": 118.428500, "Y座標": 24.408510 }, "geometry": { "type": "Point", "coordinates": [ 118.4285, 24.40851 ] } },
{ "type": "Feature", "properties": { "項目": 208, "地區": "海巡署金馬澎分署", "名稱": "新湖安檢所", "郵遞區號": 891, "地址": "金門縣金湖鎮新湖漁港", "X座標": 118.410100, "Y座標": 24.430850 }, "geometry": { "type": "Point", "coordinates": [ 118.4101, 24.43085 ] } },
{ "type": "Feature", "properties": { "項目": 209, "地區": "海巡署金馬澎分署", "名稱": "九宮安檢所", "郵遞區號": 894, "地址": "金門縣烈嶼鄉南塘1之27號", "X座標": 118.242150, "Y座標": 24.426370 }, "geometry": { "type": "Point", "coordinates": [ 118.24215, 24.42637 ] } },
{ "type": "Feature", "properties": { "項目": 210, "地區": "海巡署金馬澎分署", "名稱": "第一機動巡邏站(五龍山)", "郵遞區號": 890, "地址": "金門縣金沙鎮官澳", "X座標": 118.410000, "Y座標": 24.516390 }, "geometry": { "type": "Point", "coordinates": [ 118.41, 24.51639 ] } },
{ "type": "Feature", "properties": { "項目": 211, "地區": "海巡署金馬澎分署", "名稱": "第二機動巡邏站(湖下)", "郵遞區號": 892, "地址": "金門縣金寧鄉古寧村北山出海口", "X座標": 118.304730, "Y座標": 24.486180 }, "geometry": { "type": "Point", "coordinates": [ 118.30473, 24.48618 ] } },
{ "type": "Feature", "properties": { "項目": 212, "地區": "海巡署金馬澎分署", "名稱": "第三機動巡邏站(精誠)", "郵遞區號": 894, "地址": "金門縣烈嶼鄉西口村湖井頭出海口", "X座標": 118.230490, "Y座標": 24.445420 }, "geometry": { "type": "Point", "coordinates": [ 118.23049, 24.44542 ] } },
{ "type": "Feature", "properties": { "項目": 213, "地區": "海巡署金馬澎分署", "名稱": "烏坵漁港安檢所", "郵遞區號": 89641, "地址": "金門縣烏坵鄉大坵村烏坵郵政91117號信箱", "X座標": 119.451200, "Y座標": 24.994920 }, "geometry": { "type": "Point", "coordinates": [ 119.4512, 24.99492 ] } },
{ "type": "Feature", "properties": { "項目": 214, "地區": "海巡署金馬澎分署", "名稱": "菜園安檢所", "郵遞區號": 88054, "地址": "澎湖縣馬公市菜園里45-1號", "X座標": 119.594760, "Y座標": 23.550090 }, "geometry": { "type": "Point", "coordinates": [ 119.59476, 23.55009 ] } },
{ "type": "Feature", "properties": { "項目": 215, "地區": "海巡署金馬澎分署", "名稱": "烏崁安檢所", "郵遞區號": 88023, "地址": "澎湖縣馬公市烏崁里65-5號", "X座標": 119.623490, "Y座標": 23.553310 }, "geometry": { "type": "Point", "coordinates": [ 119.62349, 23.55331 ] } },
{ "type": "Feature", "properties": { "項目": 216, "地區": "海巡署金馬澎分署", "名稱": "鎖港安檢所", "郵遞區號": 88055, "地址": "澎湖縣馬公市鎖管港291號", "X座標": 119.601510, "Y座標": 23.540540 }, "geometry": { "type": "Point", "coordinates": [ 119.60151, 23.54054 ] } },
{ "type": "Feature", "properties": { "項目": 217, "地區": "海巡署金馬澎分署", "名稱": "山水安檢所", "郵遞區號": 880, "地址": "澎湖縣馬公市山水里", "X座標": 119.595950, "Y座標": 23.513230 }, "geometry": { "type": "Point", "coordinates": [ 119.59595, 23.51323 ] } },
{ "type": "Feature", "properties": { "項目": 218, "地區": "海巡署金馬澎分署", "名稱": "蒔裡前安檢所", "郵遞區號": 88059, "地址": "澎湖縣馬公市蒔裡里1-5號", "X座標": 119.572770, "Y座標": 23.531330 }, "geometry": { "type": "Point", "coordinates": [ 119.57277, 23.53133 ] } },
{ "type": "Feature", "properties": { "項目": 219, "地區": "海巡署金馬澎分署", "名稱": "風櫃東安檢所", "郵遞區號": 88058, "地址": "澎湖縣馬公市風櫃里118-1號", "X座標": 119.550290, "Y座標": 23.543930 }, "geometry": { "type": "Point", "coordinates": [ 119.55029, 23.54393 ] } },
{ "type": "Feature", "properties": { "項目": 220, "地區": "海巡署金馬澎分署", "名稱": "尖山安檢所", "郵遞區號": 88543, "地址": "澎湖縣湖西鄉尖山村16之4號", "X座標": 119.665590, "Y座標": 23.570250 }, "geometry": { "type": "Point", "coordinates": [ 119.66559, 23.57025 ] } },
{ "type": "Feature", "properties": { "項目": 221, "地區": "海巡署金馬澎分署", "名稱": "龍門安檢所", "郵遞區號": 88543, "地址": "澎湖縣湖西鄉良文港119之39號", "X座標": 119.676800, "Y座標": 23.559520 }, "geometry": { "type": "Point", "coordinates": [ 119.6768, 23.55952 ] } },
{ "type": "Feature", "properties": { "項目": 222, "地區": "海巡署金馬澎分署", "名稱": "果葉安檢所", "郵遞區號": 88543, "地址": "澎湖縣湖西鄉果葉村91-6號", "X座標": 119.680590, "Y座標": 23.579300 }, "geometry": { "type": "Point", "coordinates": [ 119.68059, 23.5793 ] } },
{ "type": "Feature", "properties": { "項目": 223, "地區": "海巡署金馬澎分署", "名稱": "南北寮安檢所", "郵遞區號": 88542, "地址": "澎湖縣湖西鄉北寮村北寮50-9號", "X座標": 119.669190, "Y座標": 23.598320 }, "geometry": { "type": "Point", "coordinates": [ 119.66919, 23.59832 ] } },
{ "type": "Feature", "properties": { "項目": 224, "地區": "海巡署金馬澎分署", "名稱": "紅蘿安檢所", "郵遞區號": 88541, "地址": "澎湖縣湖西鄉紅羅村130號", "X座標": 119.637000, "Y座標": 23.604400 }, "geometry": { "type": "Point", "coordinates": [ 119.637, 23.6044 ] } },
{ "type": "Feature", "properties": { "項目": 225, "地區": "海巡署金馬澎分署", "名稱": "虎井安檢所", "郵遞區號": 88057, "地址": "澎湖縣馬公市虎井里76-5號", "X座標": 119.517620, "Y座標": 23.493350 }, "geometry": { "type": "Point", "coordinates": [ 119.51762, 23.49335 ] } },
{ "type": "Feature", "properties": { "項目": 226, "地區": "海巡署金馬澎分署", "名稱": "桶盤安檢所", "郵遞區號": 88060, "地址": "澎湖縣馬公市桶盤29-1號", "X座標": 119.517690, "Y座標": 23.522080 }, "geometry": { "type": "Point", "coordinates": [ 119.51769, 23.52208 ] } },
{ "type": "Feature", "properties": { "項目": 227, "地區": "海巡署金馬澎分署", "名稱": "潭門安檢所", "郵遞區號": 88241, "地址": "澎湖縣望安鄉東安村1號之6", "X座標": 119.508120, "Y座標": 23.365890 }, "geometry": { "type": "Point", "coordinates": [ 119.50812, 23.36589 ] } },
{ "type": "Feature", "properties": { "項目": 228, "地區": "海巡署金馬澎分署", "名稱": "將軍南安檢所", "郵遞區號": 88842, "地址": "澎湖縣望安鄉將軍澳165號", "X座標": 119.519370, "Y座標": 23.364290 }, "geometry": { "type": "Point", "coordinates": [ 119.51937, 23.36429 ] } },
{ "type": "Feature", "properties": { "項目": 229, "地區": "海巡署金馬澎分署", "名稱": "七美安檢所", "郵遞區號": 88341, "地址": "澎湖縣七美鄉南港村26-3號", "X座標": 119.419110, "Y座標": 23.196310 }, "geometry": { "type": "Point", "coordinates": [ 119.41911, 23.19631 ] } },
{ "type": "Feature", "properties": { "項目": 230, "地區": "海巡署金馬澎分署", "名稱": "東吉安檢所", "郵遞區號": 88243, "地址": "澎湖縣望安鄉東吉村", "X座標": 119.672120, "Y座標": 23.272360 }, "geometry": { "type": "Point", "coordinates": [ 119.67212, 23.27236 ] } },
{ "type": "Feature", "properties": { "項目": 231, "地區": "海巡署金馬澎分署", "名稱": "東嶼坪安檢所", "郵遞區號": 88844, "地址": "澎湖縣望安鄉東坪村47號", "X座標": 119.512550, "Y座標": 23.257030 }, "geometry": { "type": "Point", "coordinates": [ 119.51255, 23.25703 ] } },
{ "type": "Feature", "properties": { "項目": 232, "地區": "海巡署金馬澎分署", "名稱": "花嶼安檢所", "郵遞區號": 88846, "地址": "澎湖縣望安鄉花嶼村110號", "X座標": 119.307940, "Y座標": 23.422330 }, "geometry": { "type": "Point", "coordinates": [ 119.30794, 23.42233 ] } },
{ "type": "Feature", "properties": { "項目": 233, "地區": "海巡署金馬澎分署", "名稱": "沙港安檢所", "郵遞區號": 88592, "地址": "澎湖縣湖西鄉沙港村土地公前26號", "X座標": 119.630740, "Y座標": 23.606080 }, "geometry": { "type": "Point", "coordinates": [ 119.63074, 23.60608 ] } },
{ "type": "Feature", "properties": { "項目": 234, "地區": "海巡署金馬澎分署", "名稱": "赤崁安檢所", "郵遞區號": 88442, "地址": "澎湖縣白沙鄉赤崁村22鄰37之3號", "X座標": 119.603130, "Y座標": 23.668540 }, "geometry": { "type": "Point", "coordinates": [ 119.60313, 23.66854 ] } },
{ "type": "Feature", "properties": { "項目": 235, "地區": "海巡署金馬澎分署", "名稱": "岐頭安檢所", "郵遞區號": 88442, "地址": "澎湖縣白沙鄉岐頭村1鄰1之3號", "X座標": 119.610320, "Y座標": 23.649470 }, "geometry": { "type": "Point", "coordinates": [ 119.61032, 23.64947 ] } },
{ "type": "Feature", "properties": { "項目": 236, "地區": "海巡署金馬澎分署", "名稱": "吉貝安檢所", "郵遞區號": 88446, "地址": "澎湖縣白沙鄉吉貝村2鄰吉貝8之14號", "X座標": 119.613490, "Y座標": 23.741320 }, "geometry": { "type": "Point", "coordinates": [ 119.61349, 23.74132 ] } },
{ "type": "Feature", "properties": { "項目": 237, "地區": "海巡署金馬澎分署", "名稱": "鳥嶼安檢所", "郵遞區號": 88443, "地址": "澎湖縣白沙鄉鳥嶼村9鄰211號", "X座標": 119.657000, "Y座標": 23.660850 }, "geometry": { "type": "Point", "coordinates": [ 119.657, 23.66085 ] } },
{ "type": "Feature", "properties": { "項目": 238, "地區": "海巡署金馬澎分署", "名稱": "大倉安檢所", "郵遞區號": 88445, "地址": "澎湖縣白沙鄉大倉村1鄰1號", "X座標": 119.570830, "Y座標": 23.625950 }, "geometry": { "type": "Point", "coordinates": [ 119.57083, 23.62595 ] } },
{ "type": "Feature", "properties": { "項目": 239, "地區": "海巡署金馬澎分署", "名稱": "員貝安檢所", "郵遞區號": 88444, "地址": "澎湖縣白沙鄉員貝村6鄰22之3號", "X座標": 119.634000, "Y座標": 23.651570 }, "geometry": { "type": "Point", "coordinates": [ 119.634, 23.65157 ] } },
{ "type": "Feature", "properties": { "項目": 240, "地區": "海巡署金馬澎分署", "名稱": "內垵北安檢所", "郵遞區號": 88142, "地址": "澎湖縣西嶼鄉內垵村18鄰227之15號", "X座標": 119.500530, "Y座標": 23.575870 }, "geometry": { "type": "Point", "coordinates": [ 119.50053, 23.57587 ] } },
{ "type": "Feature", "properties": { "項目": 241, "地區": "海巡署金馬澎分署", "名稱": "大池安檢所", "郵遞區號": 88141, "地址": "澎湖縣西嶼鄉大池角8之6號", "X座標": 119.505170, "Y座標": 23.618180 }, "geometry": { "type": "Point", "coordinates": [ 119.50517, 23.61818 ] } },
{ "type": "Feature", "properties": { "項目": 242, "地區": "海巡署金馬澎分署", "名稱": "赤馬安檢所", "郵遞區號": 88142, "地址": "澎湖縣西嶼鄉緝馬灣146之10號", "X座標": 119.511740, "Y座標": 23.582700 }, "geometry": { "type": "Point", "coordinates": [ 119.51174, 23.5827 ] } },
{ "type": "Feature", "properties": { "項目": 243, "地區": "海巡署金馬澎分署", "名稱": "外垵安檢所", "郵遞區號": 88143, "地址": "澎湖縣西嶼鄉外垵村12鄰89之1號", "X座標": 119.484890, "Y座標": 23.570140 }, "geometry": { "type": "Point", "coordinates": [ 119.48489, 23.57014 ] } },
{ "type": "Feature", "properties": { "項目": 244, "地區": "海巡署金馬澎分署", "名稱": "小門安檢所", "郵遞區號": 88141, "地址": "澎湖縣西嶼鄉小門村23號", "X座標": 119.518690, "Y座標": 23.650610 }, "geometry": { "type": "Point", "coordinates": [ 119.51869, 23.65061 ] } },
{ "type": "Feature", "properties": { "項目": 245, "地區": "海巡署金馬澎分署", "名稱": "竹灣安檢所", "郵遞區號": 88141, "地址": "澎湖縣西嶼鄉竹篙灣村19鄰70之8號", "X座標": 119.522970, "Y座標": 23.631430 }, "geometry": { "type": "Point", "coordinates": [ 119.52297, 23.63143 ] } },
{ "type": "Feature", "properties": { "項目": 246, "地區": "海巡署金馬澎分署", "名稱": "通梁安檢所", "郵遞區號": 88141, "地址": "澎湖縣白沙鄉通樑村39-6號", "X座標": 119.556230, "Y座標": 23.658640 }, "geometry": { "type": "Point", "coordinates": [ 119.55623, 23.65864 ] } },
{ "type": "Feature", "properties": { "項目": 247, "地區": "海巡署金馬澎分署", "名稱": "內垵南安檢所", "郵遞區號": 88142, "地址": "澎湖縣西嶼鄉內垵村4鄰45之3號", "X座標": 119.501380, "Y座標": 23.567720 }, "geometry": { "type": "Point", "coordinates": [ 119.50138, 23.56772 ] } },
{ "type": "Feature", "properties": { "項目": 248, "地區": "海巡署金馬澎分署", "名稱": "馬公漁港安檢所", "郵遞區號": 880, "地址": "澎湖縣馬公市大案山202號", "X座標": 119.573570, "Y座標": 23.563820 }, "geometry": { "type": "Point", "coordinates": [ 119.57357, 23.56382 ] } },
{ "type": "Feature", "properties": { "項目": 249, "地區": "海巡署金馬澎分署", "名稱": "馬公商港安檢所", "郵遞區號": 880, "地址": "澎湖縣馬公市大案山202號", "X座標": 119.573260, "Y座標": 23.563900 }, "geometry": { "type": "Point", "coordinates": [ 119.57326, 23.5639 ] } },
{ "type": "Feature", "properties": { "項目": 250, "地區": "海巡署金馬澎分署", "名稱": "西衛安檢所", "郵遞區號": 880, "地址": "澎湖縣馬公市西衛里157-9號", "X座標": 119.581600, "Y座標": 23.588730 }, "geometry": { "type": "Point", "coordinates": [ 119.5816, 23.58873 ] } },
{ "type": "Feature", "properties": { "項目": 251, "地區": "海巡署金馬澎分署", "名稱": "第一機動巡邏站(講美)", "郵遞區號": 881, "地址": "澎湖縣白沙鄉講美村141之2號", "X座標": 119.595790, "Y座標": 23.632330 }, "geometry": { "type": "Point", "coordinates": [ 119.59579, 23.63233 ] } },
{ "type": "Feature", "properties": { "項目": 252, "地區": "海巡署金馬澎分署", "名稱": "第二機動巡邏站(興仁)", "郵遞區號": 880, "地址": "澎湖縣馬公市興仁里雙頭掛1之30號", "X座標": 119.613110, "Y座標": 23.554750 }, "geometry": { "type": "Point", "coordinates": [ 119.61311, 23.55475 ] } },
{ "type": "Feature", "properties": { "項目": 253, "地區": "海巡署金馬澎分署", "名稱": "第三機動巡邏站(鎖港)", "郵遞區號": 880, "地址": "澎湖縣馬公市鎖港里291號", "X座標": 119.605480, "Y座標": 23.528060 }, "geometry": { "type": "Point", "coordinates": [ 119.60548, 23.52806 ] } }
]
}
